NORAD_CAT_ID,OBJECT_NAME,OBJECT_TYPE,EPOCH,MEAN_MOTION,ECCENTRICITY,INCLINATION,RA_OF_ASC_NODE,ARG_OF_PERICENTER,MEAN_ANOMALY,BSTAR,MEAN_MOTION_DOT,MEAN_MOTION_DDOT,TLE_LINE0,TLE_LINE1,TLE_LINE2,SEMIMAJOR_AXIS,PERIOD,APOGEE,PERIGEE,DECAYED
52286.0,STARLINK-3802,PAYLOAD,2022-10-28 11:28:51,15.0884882,0.0002081,53.2187,212.7633,48.6366,311.4805,0.00010252,1.344e-05,0.0,0 STARLINK-3802,1 52286U 22041AB  22301.47837302  .00001344  00000-0  10252-3 0  9999,2 52286  53.2187 212.7633 0002081  48.6366 311.4805 15.08848820 30301,6917.853,95.437,541.158,538.279,0.0
52286.0,STARLINK-3802,PAYLOAD,2022-10-29 03:22:43,15.08839428,0.0001966,53.2188,209.7893,48.5271,311.589,1.2259e-05,-9.3e-07,0.0,0 STARLINK-3802,1 52286U 22041AB  22302.14077987 -.00000093  00000-0  12259-4 0  9990,2 52286  53.2188 209.7893 0001966  48.5271 311.5890 15.08839428 30401,6917.882,95.438,541.107,538.387,0.0
52286.0,STARLINK-3802,PAYLOAD,2022-10-30 03:13:30,15.08839288,0.0001916999999999,53.2185,205.3276,46.9669,313.1483,-4.7695e-05,-1.047e-05,0.0,0 STARLINK-3802,1 52286U 22041AB  22303.13437987 -.00001047  00000-0 -47695-4 0  9993,2 52286  53.2185 205.3276 0001917  46.9669 313.1483 15.08839288 29334,6917.8830000000025,95.438,541.0740000000002,538.4209999999998,0.0
52286.0,STARLINK-3802,PAYLOAD,2022-10-30 11:10:25,15.08841801,0.0001968,53.2186,203.8409,46.8305,313.2852,-2.8248e-05,-7.38e-06,0.0,0 STARLINK-3802,1 52286U 22041AB  22303.46557732 -.00000738  00000-0 -28248-4 0  9999,2 52286  53.2186 203.8409 0001968  46.8305 313.2852 15.08841801 29388,6917.875,95.437,541.101,538.378,0.0
52286.0,STARLINK-3802,PAYLOAD,2022-10-31 03:04:18,15.088259,0.0001943,53.2186,200.8686,49.1241,310.9919,-8.9555e-05,-1.713e-05,0.0,0 STARLINK-3802,1 52286U 22041AB  22304.12798992 -.00001713  00000-0 -89555-4 0  9990,2 52286  53.2186 200.8686 0001943  49.1241 310.9919 15.08825900 29481,6917.9230000000025,95.438,541.133,538.444,0.0
52286.0,STARLINK-3802,PAYLOAD,2022-11-01 02:55:05,15.08826937,0.0002139,53.2197,196.4075,53.2975,306.8213,1.6303e-05,-2.9e-07,0.0,0 STARLINK-3802,1 52286U 22041AB  22305.12159266 -.00000029  00000-0  16303-4 0  9995,2 52286  53.2197 196.4075 0002139  53.2975 306.8213 15.08826937 30858,6917.92,95.438,541.265,538.306,0.0
52286.0,STARLINK-3802,PAYLOAD,2022-11-01 17:13:33,15.08832621,0.0001913,53.2173,193.733,40.8552,319.2584,7.377e-05,8.86e-06,0.0,0 STARLINK-3802,1 52286U 22041AB  22305.71774869  .00000886  00000-0  73770-4 0  9993,2 52286  53.2173 193.7330 0001913  40.8552 319.2584 15.08832621 30944,6917.903,95.438,541.091,538.445,0.0
52286.0,STARLINK-3802,PAYLOAD,2022-11-02 09:07:25,15.0883155,0.0001873,53.2182,190.7585,47.7118,312.4033,7.203899999999999e-05,8.58e-06,0.0,0 STARLINK-3802,1 52286U 22041AB  22306.38015241  .00000858  00000-0  72039-4 0  9995,2 52286  53.2182 190.7585 0001873  47.7118 312.4033 15.08831550 29821,6917.906,95.438,541.067,538.475,0.0
52286.0,STARLINK-3802,PAYLOAD,2022-11-03 01:01:17,15.08829044,0.0001939,53.2182,187.7857,48.5466,311.5693,-9.3393e-05,-1.774e-05,0.0,0 STARLINK-3802,1 52286U 22041AB  22307.04256639 -.00001774  00000-0 -93393-4 0  9993,2 52286  53.2182 187.7857 0001939  48.5466 311.5693 15.08829044 31142,6917.9140000000025,95.438,541.12,538.437,0.0
52286.0,STARLINK-3802,PAYLOAD,2022-11-03 08:58:12,15.08836193,0.0001882,53.2181,186.3012,52.8499,307.2665,-2.6175e-05,-7.05e-06,0.0,0 STARLINK-3802,1 52286U 22041AB  22307.37376109 -.00000705  00000-0 -26175-4 0  9991,2 52286  53.2181 186.3012 0001882  52.8499 307.2665 15.08836193 31199,6917.892,95.438,541.059,538.455,0.0
52286.0,STARLINK-3802,PAYLOAD,2022-11-03 18:30:30,15.08857916,0.0002325,53.2179,184.5171,54.0967,306.0241,0.00014211,1.975e-05,0.0,0 STARLINK-3802,1 52286U 22041AB  22307.77118141  .00001975  00000-0  14211-3 0  9990,2 52286  53.2179 184.5171 0002325  54.0967 306.0241 15.08857916 31259,6917.826,95.436,541.299,538.082,0.0
52286.0,STARLINK-3802,PAYLOAD,2022-11-04 02:27:24,15.08871713,0.0002329,53.2164,183.0291,38.8207,321.2952,0.00023198,3.409e-05,0.0,0 STARLINK-3802,1 52286U 22041AB  22308.10236332  .00003409  00000-0  23198-3 0  9999,2 52286  53.2164 183.0291 0002329  38.8207 321.2952 15.08871713 31306,6917.783,95.436,541.26,538.0369999999998,0.0
52286.0,STARLINK-3802,PAYLOAD,2022-11-04 08:48:58,15.08845867,0.0001785,53.2183,181.8405,52.6367,307.4787,0.00010566,1.394e-05,0.0,0 STARLINK-3802,1 52286U 22041AB  22308.36734055  .00001394  00000-0  10566-3 0  9998,2 52286  53.2183 181.8405 0001785  52.6367 307.4787 15.08845867 31343,6917.861999999999,95.437,540.962,538.493,0.0
52286.0,STARLINK-3802,PAYLOAD,2022-11-04 18:21:18,15.08827535,0.000178,53.2178,180.0529,46.9976,313.1165,5.4825e-05,5.84e-06,0.0,0 STARLINK-3802,1 52286U 22041AB  22308.76479355  .00000584  00000-0  54825-4 0  9998,2 52286  53.2178 180.0529 0001780  46.9976 313.1165 15.08827535 31405,6917.918000000002,95.438,541.015,538.552,0.0
52286.0,STARLINK-3802,PAYLOAD,2022-11-05 08:39:46,15.08827343,0.0001874,53.2171,177.3778,47.1065,313.0084,-3.9499e-05,-9.16e-06,0.0,0 STARLINK-3802,1 52286U 22041AB  22309.36095895 -.00000916  00000-0 -39499-4 0  9999,2 52286  53.2171 177.3778 0001874  47.1065 313.0084 15.08827343 30279,6917.919,95.438,541.08,538.488,0.0
52286.0,STARLINK-3802,PAYLOAD,2022-11-05 18:12:06,15.08833633,0.0002319,53.2154,175.5938,50.2445,309.8751,-0.0002147,-3.703e-05,0.0,0 STARLINK-3802,1 52286U 22041AB  22309.75840376 -.00003703  00000-0 -21470-3 0  9990,2 52286  53.2154 175.5938 0002319  50.2445 309.8751 15.08833633 30330,6917.9,95.438,541.369,538.161,0.0
52286.0,STARLINK-3802,PAYLOAD,2022-11-06 02:09:01,15.08840982,0.0002092,53.2156,174.1058,40.4963,319.6184,-0.00028726,-4.857e-05,0.0,0 STARLINK-3802,1 52286U 22041AB  22310.08960175 -.00004857  00000-0 -28726-3 0  9990,2 52286  53.2156 174.1058 0002092  40.4963 319.6184 15.08840982 31609,6917.877,95.437,541.19,538.295,0.0
52286.0,STARLINK-3802,PAYLOAD,2022-11-06 08:30:33,15.08846569,0.0001965,53.2162,172.9158,52.472,307.6451,-0.00023368,-4.006e-05,0.0,0 STARLINK-3802,1 52286U 22041AB  22310.35455526 -.00004006  00000-0 -23368-3 0  9992,2 52286  53.2162 172.9158 0001965  52.4720 307.6451 15.08846569 31640,6917.86,95.437,541.085,538.366,0.0
52286.0,STARLINK-3802,PAYLOAD,2022-11-07 08:21:21,15.08824726,0.0001916,53.2156,168.4558,55.6456,304.4717,6.5167e-06,-1.84e-06,0.0,0 STARLINK-3802,1 52286U 22041AB  22311.34816446 -.00000184  00000-0  65167-5 0  9991,2 52286  53.2156 168.4558 0001916  55.6456 304.4717 15.08824726 31791,6917.927,95.439,541.118,538.467,0.0
52286.0,STARLINK-3802,PAYLOAD,2022-11-07 16:18:16,15.08824527,0.0001786,53.2179,166.97099999999998,42.2152,317.8977,9.8413e-05,1.278e-05,0.0,0 STARLINK-3802,1 52286U 22041AB  22311.67936291  .00001278  00000-0  98413-4 0  9991,2 52286  53.2179 166.9710 0001786  42.2152 317.8977 15.08824527 30625,6917.928000000001,95.439,541.028,538.557,0.0
52286.0,STARLINK-3802,PAYLOAD,2022-11-08 01:50:35,15.08835916,0.0002236,53.2174,165.1883,41.5121,318.6041,0.00012826,1.753e-05,0.0,0 STARLINK-3802,1 52286U 22041AB  22312.07679754  .00001753  00000-0  12826-3 0  9995,2 52286  53.2174 165.1883 0002236  41.5121 318.6041 15.08835916 31908,6917.893,95.438,541.305,538.211,0.0
52286.0,STARLINK-3802,PAYLOAD,2022-11-09 15:59:51,15.08833532,0.0002245,53.2155,158.0498,47.8153,312.303,-7.6536e-05,-1.506e-05,0.0,0 STARLINK-3802,1 52286U 22041AB  22313.66656343 -.00001506  00000-0 -76536-4 0  9997,2 52286  53.2155 158.0498 0002245  47.8153 312.3030 15.08833532 32142,6917.9,95.438,541.318,538.212,0.0
52286.0,STARLINK-3802,PAYLOAD,2022-11-09 20:46:01,15.08806237,0.0001604,53.2169,157.1569,48.7047,311.4083,0.00010432,1.371e-05,0.0,0 STARLINK-3802,1 52286U 22041AB  22313.86529686  .00001371  00000-0  10432-3 0  9998,2 52286  53.2169 157.1569 0001604  48.7047 311.4083 15.08806237 30953,6917.984,95.44,540.9580000000002,538.739,0.0
52286.0,STARLINK-3802,PAYLOAD,2022-11-09 23:56:47,15.08827414,0.0001734,53.2169,156.562,47.8478,312.2661,-0.00015157,-2.699e-05,0.0,0 STARLINK-3802,1 52286U 22041AB  22313.99777179 -.00002699  00000-0 -15157-3 0  9999,2 52286  53.2169 156.5620 0001734  47.8478 312.2661 15.08827414 32195,6917.919,95.438,540.9830000000002,538.5840000000002,0.0
52286.0,STARLINK-3802,PAYLOAD,2022-11-10 12:39:52,15.08830472,0.0001803,53.2171,154.183,47.713,312.4015,-0.00016522,-2.916e-05,0.0,0 STARLINK-3802,1 52286U 22041AB  22314.52769353 -.00002916  00000-0 -16522-3 0  9993,2 52286  53.2171 154.1830 0001803  47.7130 312.4015 15.08830472 31053,6917.91,95.438,541.0219999999998,538.5269999999998,0.0
52286.0,STARLINK-3802,PAYLOAD,2022-11-10 20:36:48,15.08822502,0.0001799,53.2172,152.6963,48.8183,311.2964,-3.3096e-06,-3.41e-06,0.0,0 STARLINK-3802,1 52286U 22041AB  22314.85889351 -.00000341  00000-0 -33096-5 0  9997,2 52286  53.2172 152.6963 0001799  48.8183 311.2964 15.08822502 31109,6917.934,95.439,541.043,538.554,0.0
52286.0,STARLINK-3802,PAYLOAD,2022-11-10 23:47:34,15.08824427,0.0001831,53.2173,152.1015,49.3312,310.7839,1.2233e-05,-9.3e-07,0.0,0 STARLINK-3802,1 52286U 22041AB  22314.99137331 -.00000093  00000-0  12233-4 0  9998,2 52286  53.2173 152.1015 0001831  49.3312 310.7839 15.08824427 32340,6917.928000000001,95.439,541.06,538.526,0.0
52286.0,STARLINK-3802,PAYLOAD,2022-11-11 06:09:07,15.08825307,0.0001842,53.2173,150.9121,49.4118,310.7034,1.9164e-05,1.7e-07,0.0,0 STARLINK-3802,1 52286U 22041AB  22315.25633513  .00000017  00000-0  19164-4 0  9996,2 52286  53.2173 150.9121 0001842  49.4118 310.7034 15.08825307 31165,6917.925,95.438,541.065,538.516,0.0
52286.0,STARLINK-3802,PAYLOAD,2022-11-11 20:27:35,15.08825519,0.0001899,53.2175,148.2362,50.2943,309.8216,0.00010907,1.447e-05,0.0,0 STARLINK-3802,1 52286U 22041AB  22315.85249716  .00001447  00000-0  10907-3 0  9993,2 52286  53.2175 148.2362 0001899  50.2943 309.8216 15.08825519 31258,6917.925,95.438,541.1030000000002,538.476,0.0
